HELIOS 1B               
1 25977U 99064A   21064.49084619  .00000076  00000-0  16574-4 0  9992
2 25977  98.3065 234.9589 0001090 157.2222 202.9038 14.82536527413795
TERRA                   
1 25994U 99068A   21064.54656620  .00000063  00000-0  24029-4 0  9998
2 25994  98.1852 140.8334 0001272  92.8695  15.3732 14.57122912128217
SL-16 R/B               
1 26070U 00006B   21064.50132899 -.00000116  00000-0 -35124-4 0  9990
2 26070  71.0055 344.6900 0014156  86.4516 273.8225 14.15472726 89575
MTI                     
1 26102U 00014A   21064.65328302  .00011102  00000-0  14346-3 0  9994
2 26102  97.4731 325.8352 0006247 358.2604   1.8638 15.59110917165163
TITAN 4B R/B            
1 26474U 00047B   21064.39846688  .00000276  00000-0  34611-4 0  9993
2 26474  67.9928  77.3563 0061173 270.5168  88.8964 14.96096292118274
ENVISAT                 
1 27386U 02009A   21064.44624354  .00000037  00000-0  25823-4 0  9996
2 27386  98.1455  63.8349 0001295  92.9661  80.5724 14.38015096996055
IDEFIX & ARIANE 42P R/B 
1 27422U 02021B   21064.50265474  .00000027  00000-0  26976-4 0  9991
2 27422  98.3899  21.2629 0012159 174.4951 185.6367 14.29310037982450
AQUA                    
1 27424U 02022A   21064.61146991  .00000170  00000-0  47826-4 0  9994
2 27424  98.2118   7.4668 0000157 110.1635 232.5922 14.57112247  1900
CZ-4B R/B               
1 27432U 02024C   21064.51534328 -.00000021  00000-0  12887-4 0  9994
2 27432  99.0905  77.1582 0050810 158.9741 354.3824 14.14104893970540
MIDORI II (ADEOS-II)    
1 27597U 02056A   21064.56752343  .00000055  00000-0  39862-4 0  9993
2 27597  98.5536  12.0217 0000751  28.6717 331.4505 14.27486982949065
H-2A R/B                
1 27601U 02056E   21064.51682684 -.00000058  00000-0 -63795-5 0  9992
2 27601  98.2009  92.4680 0071457 219.0432 261.9762 14.31990888952055
CZ-4B R/B               
1 28059U 03049C   21064.52194966  .00000055  00000-0  24798-4 0  9999
2 28059  98.4921 350.0275 0051138  61.1173 299.5139 14.52637911920736
CZ-2C R/B               
1 28222U 04012C   21064.52497782  .00000692  00000-0  44893-4 0  9999
2 28222  97.7150  34.3792 0045834 215.4239 262.6984 15.10733728925409
SL-16 R/B               
1 28353U 04021B   21064.55662195 -.00000313  00000-0 -13910-3 0  9996
2 28353  71.0004 111.7180 0007587 289.2821  70.7480 14.14240440864056
CZ-4B R/B               
1 28415U 04035C   21064.59225550  .00000745  00000-0  52540-4 0  9994
2 28415  97.5804 108.7976 0051441 180.1241 179.9983 15.07041283902968
CZ-2C R/B               
1 28480U 04046B   21064.50494690  .00000051  00000-0  34036-4 0  9992
2 28480  98.0571  84.8615 0142113 171.3727 351.4276 14.25743156847618
ARIANE 5 R/B            
1 28499U 04049H   21064.33362431  .00000171  00000-0  28275-4 0  9994
2 28499  98.0610 173.1032 0092829 149.5038 277.7209 14.80096328874683
CZ-2D R/B               
1 28738U 05024B   21064.49994993  .00000614  00000-0  39054-4 0  9994
2 28738  97.3682  84.1830 0011979   9.6183 350.5275 15.12293054860859
SUZAKU (ASTRO-EII)      
1 28773U 05025A   21064.49715631  .00001643  00000-0  74187-4 0  9993
2 28773  31.3816 118.6358 0004561 315.5899  44.4382 15.18146016863655
ALOS (DAICHI)           
1 28931U 06002A   21064.44983310  .00000181  00000-0  44079-4 0  9994
2 28931  97.8750  43.8089 0001860  35.2386 324.8936 14.62805238805855
H-2A R/B                
1 28932U 06002B   21064.49261361  .00000277  00000-0  31523-4 0  9991
2 28932  98.3325  75.4462 0088247 186.8238 326.9460 14.92462217820074
AKARI (ASTRO-F)         
1 28939U 06005A   21064.44922531  .00004893  00000-0  12412-3 0  9992
2 28939  98.2505  75.2224 0090419 129.5533 231.3742 15.36114784820939
RESURS-DK 1             
1 29228U 06021A   21064.50489569  .00000196  00000-0  21976-4 0  9996
2 29228  69.9336 243.3842 0002356  23.2553 336.8714 15.02651555811932
GENESIS 1               
1 29252U 06029A   21064.57287077  .00000658  00000-0  41491-4 0  9995
2 29252  64.5221 167.3284 0031889 335.6575  24.3040 15.18503259807744
CZ-4B R/B               
1 29507U 06046C   21064.41400418  .00000897  00000-0  74020-4 0  9995
2 29507  97.7205  90.8916 0048911   7.3404 352.8525 15.00680934784509
CZ-2C R/B               
1 31114U 07010B   21064.49157895 -.00000042  00000-0 -10953-5 0  9990
2 31114  98.2384 265.4763 0058914 225.3266 134.3103 14.19347609720033
COSMO-SKYMED 1          
1 31598U 07023A   21064.54100545  .00000203  00000-0  32098-4 0  9996
2 31598  97.8872 249.9075 0001484  88.8645 271.2761 14.82155241743509
GENESIS 2               
1 31789U 07028A   21064.47812287  .00000975  00000-0  58112-4 0  9999
2 31789  64.5064 209.7916 0023414 212.0350 147.9351 15.17648295754774
COSMOS 2428             
1 31792U 07029A   21064.49927353 -.00000002  00000-0  25139-4 0  9992
2 31792  70.8903  84.4616 0005123  14.1957 345.9306 14.12237927705637
SL-16 R/B               
1 31793U 07029B   21064.45657537  .00000213  00000-0  13603-3 0  9998
2 31793  70.9759  58.0833 0002678 265.2433 208.4973 14.14445594706565
KORONAS-FOTON           
1 33504U 09003A   21064.46128355  .00001004  00000-0  50513-4 0  9997
2 33504  82.4435 323.0755 0020569  95.2689 265.0891 15.15892196666915
H-2A R/B                
1 38341U 12025E   21064.50443944  .00000293  00000-0  41659-4 0  9998
2 38341  98.5228 242.8900 0056542 113.0211 247.6978 14.84181022476080
CUSAT 2 & FALCON 9 R/B  
1 39271U 13055G   21064.52297754  .00007293  00000-0  16981-3 0  9999
2 39271  80.9676 345.5430 0576463 103.3148 263.2966 14.51204371388556
SL-4 R/B                
1 39679U 14021B   21064.46804407  .00000650  00000-0  49149-4 0  9990
2 39679  51.6165 335.8239 0171135 130.3896 231.2154 15.06783832378370
ALOS-2                  
1 39766U 14029A   21064.57396947 -.00000144  00000-0 -12434-4 0  9999
2 39766  97.9199 163.4338 0001668  99.3296 260.8124 14.79469641366306
CZ-2C R/B               
1 40306U 14071B   21064.42600260  .00005823  00000-0  11599-3 0  9995
2 40306  97.3588  20.0777 0012640 298.0684  61.9288 15.47226897354162
SL-27 R/B               
1 40354U 14084B   21064.53854760  .00001777  00000-0  43539-4 0  9994
2 40354  74.7374 207.7387 0038162 265.1091  94.5764 15.40832596348337
YAOGAN 29               
1 41038U 15069A   21064.52843796  .00000013  00000-0  86313-5 0  9994
2 41038  98.0323  58.3823 0002245 103.1169 257.0286 14.80489061284900
ASTRO-H (HITOMI)        
1 41337U 16012A   21064.54115236  .00000399  00000-0  25396-4 0  9998
2 41337  31.0049 154.2297 0012245 131.5363 228.6324 14.98794092276705
HXMT (HUIYAN)           
1 42758U 17034A   21064.34682405  .00000498  00000-0  44478-4 0  9998
2 42758  43.0174  44.5211 0010202 234.6169 271.1835 15.09084396205289
CZ-2C R/B               
1 43521U 18054D   21064.24574907  .00000857  00000-0  47823-4 0  9992
2 43521  35.1552  12.3765 0082993 258.5420 100.5963 15.11340233148627
AEOLUS                  
1 43600U 18066A   21064.18676268  .00045520  00000-0  17954-3 0  9996
2 43600  96.7205  72.6231 0007975  96.7553 263.4628 15.86682074146715
SAOCOM 1A               
1 43641U 18076A   21064.54942663  .00000033  00000-0  10699-4 0  9997
2 43641  97.8879 252.9463 0001461  84.1493 275.9899 14.82150868130275
CREW DRAGON DEMO-1 DEB  
1 44064U 19011B   21064.39937485  .00059863  00000-0  34073-3 0  9992
2 44064  51.6265  60.5129 0003008  12.4633 347.6442 15.78368209113901
CZ-2F R/B               
1 46390U 20063B   21063.59053968  .00067371  12671-4  23512-3 0  9991
2 46390  50.2002 174.2257 0010415   2.4114 357.6920 15.89461616 28711
2020-063G               
1 46395U 20063G   21064.57292789  .00022393  00000-0  10722-3 0  9994
2 46395  50.2035 173.3980 0009655   1.9472 358.1546 15.82575758 28806
